44P/Reinmuth,e,5.8965,286.4256,58.0191,3.687735,0.1391760,0.42701338,109.1571,06/15.0/2024,2000,g  8.3,6.0
# From MPEC 2022-O01
45P/Honda-Mrkos-Pajdusakova,e,4.3237,87.6902,327.9356,3.056549,0.1844408,0.81774563,143.8316,06/15.0/2024,2000,g 13.5,8.0
# From MPEC 2024-F91
46P/Wirtanen,e,11.7498,82.1620,356.3199,3.091396,0.1813310,0.65878988,4.8780,06/15.0/2024,2000,g 14.0,6.0
# From MPEC 2023-J29
47P/Ashbrook-Jackson,e,13.0374,356.8980,357.8643,4.119758,0.1178682,0.31850361,301.0828,06/15.0/2024,2000,g  1.0,11.2
# From MPEC 2024-LE0
48P/Johnson,e,12.2008,110.0657,216.7726,3.500545,0.1504876,0.42681178,320.7802,06/15.0/2024,2000,g 10.0,6.0
# From MPEC 2024-JU4
49P/Arend-Rigaux,e,19.0587,118.7945,332.9387,3.568893,0.1461854,0.59892066,316.1962,06/15.0/2024,2000,g 11.3,4.4
# From MPEC 2024-BE0
50P/Arend,e,19.0981,355.1660,49.3450,4.090383,0.1191401,0.53003990,3.9588,06/15.0/2024,2000,g  9.5,6.0
# From MPEC 2023-J29
51P/Harrington,e,5.4265,83.6600,269.2420,3.705421,0.1381808,0.54308919,86.0730,06/15.0/2024,2000,g 10.0,8.0
# From NK 3014
51P-A/Harrington,e,5.4266,269.2344,83.6482,3.706691,0.1381098,0.54327884,85.6727,06/15.0/2024,2000,g 10.0,8.0
# From MPEC 2023-J29
51P-D/Harrington,e,5.4270,83.6482,269.2601,3.705775,0.1381610,0.54321899,86.0022,06/15.0/2024,2000,g 16.0,8.0
# From MPEC 2023-XP6
52P/Harrington-Abell,e,10.2334,336.7859,139.5712,3.862605,0.1298325,0.54078497,127.6778,06/15.0/2024,2000,g 13.5,6.0
# From MPEC 2023-TM6
53P/VanBiesbroeck,e,6.6041,148.8458,134.4100,5.436488,0.0777547,0.54965352,231.2402,06/15.0/2024,2000,g  7.7,4.8
# From MPC 89011
54P/de Vico-Swift-NEAT,e,6.0643,358.8471,1.9276,3.785689,0.1338094,0.42629015,349.1717,06/15.0/2024,2000,g  9.0,4.0
# From MPC 31070
55P/Tempel-Tuttle,e,162.4974,235.4182,172.4650,10.34638,0.0296156,0.90562449,285.0157,06/15.0/2024,2000,g  9.0,4.0
# From MPEC 2023-TM6
56P/Slaughter-Burnham,e,8.1559,345.9296,44.1593,5.064117,0.0864865,0.50861294,249.1314,06/15.0/2024,2000,g  8.5,6.0
# From MPEC 2024-DC6
57P/duToit-Neujmin-Delporte,e,2.8524,188.7714,115.0820,3.442111,0.1543358,0.50079130,150.0570,06/15.0/2024,2000,g 12.5,6.0
# From MPEC 2024-A43
58P/Jackson-Neujmin,e,13.0973,159.0601,200.5684,4.089847,0.1191636,0.66219087,176.2967,06/15.0/2024,2000,g 15.5,6.0
# From MPEC 2023-A50
59P/Kearns-Kwee,e,9.3512,312.7447,127.6041,4.480766,0.1039144,0.47686274,217.7148,06/15.0/2024,2000,g  7.0,6.0
# From MPEC 2021-F20
60P/Tsuchinshan,e,3.5812,267.4346,216.9442,3.527766,0.1487491,0.53371541,300.3919,06/15.0/2024,2000,g 11.5,6.0
# From MPEC 2024-JU4
61P/Shajn-Schaldach,e,5.9988,162.9637,221.6708,3.689328,0.1390859,0.42348601,83.4931,06/15.0/2024,2000,g  6.0,10.0
# From MPEC 2024-LE0
62P/Tsuchinshan,e,4.7375,68.6663,47.3070,3.369481,0.1593527,0.62458137,27.5485,06/15.0/2024,2000,g  8.0,10.0
# From MPC 84320
63P/Wild,e,19.6496,357.8656,168.8630,5.635188,0.0736786,0.65045708,304.6174,06/15.0/2024,2000,g 10.5,6.0
# From MPEC 2024-A43
64P/Swift-Gehrels,e,8.9514,299.8133,97.2855,4.452219,0.1049154,0.68871585,214.7586,06/15.0/2024,2000,g  9.5,12.0
# From MPEC 2024-LE0
65P/Gunn,e,9.1760,61.9764,213.7434,3.891269,0.1284007,0.24812084,312.9061,06/15.0/2024,2000,g  5.0,6.0
# From MPEC 2021-F20
66P/duToit,e,18.6416,21.8016,257.4537,6.070820,0.0658920,0.78515796,146.4531,06/15.0/2024,2000,g 15.0,4.0
# From MPEC 2024-C04
67P/Churyumov-Gerasimenko,e,3.8707,36.3273,22.1784,3.458183,0.1532611,0.65000229,146.4460,06/15.0/2024,2000,g 11.0,4.0
# From MPEC 2023-HD1
68P/Klemola,e,11.1060,175.0709,153.2598,4.962116,0.0891669,0.63631449,149.9044,06/15.0/2024,2000,g 12.6,4.0
# From MPEC 2024-C04
69P/Taylor,e,22.0590,104.8055,343.4371,3.882206,0.1288505,0.41452492,246.5751,06/15.0/2024,2000,g  9.5,12.0
# From MPEC 2023-VM5
70P/Kojima,e,6.6008,119.2383,1.7753,3.676171,0.1398333,0.45443896,133.4793,06/15.0/2024,2000,g 11.0,6.0
# From MPEC 2024-A43
71P/Clark,e,9.4387,59.3820,209.4079,3.148667,0.1764063,0.49376585,89.7355,06/15.0/2024,2000,g  9.8,6.0
# From MPEC 2023-VM5
72P/Denning-Fujikawa,e,10.9482,26.7020,346.7399,4.307170,0.1102595,0.81858016,40.2727,06/15.0/2024,2000,g 17.5,10.0
# From MPEC 2023-RF3
73P/Schwassmann-Wachmann,e,11.3173,69.5180,199.2498,3.083648,0.1820148,0.69057056,119.5513,06/15.0/2024,2000,g 11.5,6.0
# From NK 1613
73P-B/Schwassmann-Wachmann B,e,11.1553,198.9978,69.7585,3.086007,0.1818062,0.69024390,118.7448,06/15.0/2024,2000,g  9.0,4.0
# From NK 2710
73P-C/Schwassmann-Wachmann,e,11.1525,199.0471,69.7384,3.084714,0.1819206,0.68994711,119.5652,06/15.0/2024,2000,g  9.0,4.0
# From NK 934
73P-E/Schwassmann-Wachmann,e,11.1565,198.9430,69.7944,3.089723,0.1814783,0.69082324,116.9223,06/15.0/2024,2000,g  9.0,4.0
# From MPC 56796
73P-G/Schwassmann-Wachmann,e,11.388,69.909,198.772,3.06230,0.183922,0.6933024,359.982,06/08.0/2006,2000,g  9.0,4.0
# From MPC 56796
73P-H/Schwassmann-Wachmann,e,11.389,69.903,198.778,3.06223,0.183927,0.6933024,359.948,06/08.0/2006,2000,g  9.0,4.0
# From MPC 56796
73P-J/Schwassmann-Wachmann,e,11.386,69.983,198.673,3.06380,0.183786,0.6933024,359.974,06/08.0/2006,2000,g  9.0,4.0
# From MPC 56797
73P-K/Schwassmann-Wachmann,e,11.390,69.881,198.809,3.06176,0.183970,0.6933024,359.959,06/08.0/2006,2000,g  9.0,4.0
# From MPC 56797
73P-L/Schwassmann-Wachmann,e,11.388,69.911,198.772,3.06211,0.183938,0.6933024,359.937,06/08.0/2006,2000,g  9.0,4.0
# From MPC 56797
73P-M/Schwassmann-Wachmann,e,11.389,69.895,198.787,3.06205,0.183944,0.6933024,359.952,06/08.0/2006,2000,g  9.0,4.0
# From MPC 56797
73P-N/Schwassmann-Wachmann,e,11.389,69.909,198.754,3.06231,0.183921,0.6933024,359.952,06/08.0/2006,2000,g  9.0,4.0
# From MPC 56797
73P-P/Schwassmann-Wachmann,e,11.390,69.900,198.783,3.06222,0.183929,0.6933024,359.839,06/07.0/2006,2000,g  9.0,4.0
# From MPC 56797
73P-Q/Schwassmann-Wachmann,e,11.387,69.944,198.717,3.06298,0.183860,0.6933024,359.867,06/07.0/2006,2000,g  9.0,4.0
# From MPC 56797
73P-R/Schwassmann-Wachmann,e,11.388,69.904,198.776,3.06224,0.183927,0.6933024,359.966,06/08.0/2006,2000,g  9.0,4.0
# From MPC 56797
73P-S/Schwassmann-Wachmann,e,11.127,77.364,188.229,3.22719,0.170007,0.6933024,359.883,06/08.0/2006,2000,g  9.0,4.0
# From MPEC 2023-J29
73P-T/Schwassmann-Wachmann,e,11.3206,69.5239,199.2300,3.082383,0.1821270,0.69045902,119.8460,06/15.0/2024,2000,g  9.0,4.0
# From MPC 56797
73P-U/Schwassmann-Wachmann,e,11.384,69.994,198.659,3.06366,0.183799,0.6933024,359.997,06/09.0/2006,2000,g  9.0,4.0
# From MPC 56797
73P-V/Schwassmann-Wachmann,e,11.651,65.236,204.943,2.97417,0.192156,0.6933024,359.908,06/08.0/2006,2000,g  9.0,4.0
# From MPC 56797
73P-W/Schwassmann-Wachmann,e,11.390,69.884,198.803,3.06185,0.183962,0.6933024,359.908,06/08.0/2006,2000,g  9.0,4.0
# From MPC 56798
73P-X/Schwassmann-Wachmann,e,11.388,69.900,198.778,3.06207,0.183942,0.6933024,359.896,06/08.0/2006,2000,g  9.0,4.0
# From MPC 56798
73P-Y/Schwassmann-Wachmann,e,11.391,69.879,198.785,3.06200,0.183948,0.6933024,359.858,06/08.0/2006,2000,g  9.0,4.0
# From MPC 56798
73P-Z/Schwassmann-Wachmann,e,11.349,70.493,198.017,3.07155,0.183091,0.6933024,359.943,06/08.0/2006,2000,g  9.0,4.0
# From MPC 56798
73P-AA/Schwassmann-Wachmann,e,11.390,69.883,198.804,3.06182,0.183965,0.6933024,359.984,06/09.0/2006,2000,g  9.0,4.0
# From MPC 56798
73P-AB/Schwassmann-Wachmann,e,11.390,69.888,198.792,3.06183,0.183964,0.6933024,359.872,06/08.0/2006,2000,g  9.0,4.0
# From MPC 56798
73P-AC/Schwassmann-Wachmann,e,11.387,69.914,198.766,3.06223,0.183927,0.6933024,359.872,06/08.0/2006,2000,g  9.0,4.0
# From MPC 56798
73P-AD/Schwassmann-Wachmann,e,11.355,70.416,198.119,3.07035,0.183198,0.6933024,359.873,06/08.0/2006,2000,g  9.0,4.0
# From MPC 56798
73P-AE/Schwassmann-Wachmann,e,11.390,69.891,198.790,3.06196,0.183952,0.6933024,359.935,06/08.0/2006,2000,g  9.0,4.0
# From MPC 56798
73P-AF/Schwassmann-Wachmann,e,11.356,70.302,198.217,3.06961,0.183265,0.6933024,359.846,06/06.0/2006,2000,g  9.0,4.0
# From MPC 56798
73P-AG/Schwassmann-Wachmann,e,11.386,69.932,198.724,3.06233,0.183919,0.6933024,359.997,06/09.0/2006,2000,g  9.0,4.0
# From MPC 56798
73P-AH/Schwassmann-Wachmann,e,11.331,70.695,197.755,3.07445,0.182832,0.6933024,359.885,06/08.0/2006,2000,g  9.0,4.0
# From MPC 56798
73P-AI/Schwassmann-Wachmann,e,11.392,69.885,198.806,3.06205,0.183944,0.6933024,359.864,06/08.0/2006,2000,g  9.0,4.0
# From MPC 56799
73P-AJ/Schwassmann-Wachmann,e,11.385,70.041,198.663,3.06262,0.183892,0.6933024,359.864,06/08.0/2006,2000,g  9.0,4.0
# From MPC 56799
73P-AK/Schwassmann-Wachmann,e,11.389,69.784,198.822,3.06244,0.183909,0.6933024,359.927,06/08.0/2006,2000,g  9.0,4.0
# From MPC 56799
73P-AL/Schwassmann-Wachmann,e,11.395,69.843,198.857,3.06140,0.184003,0.6933024,359.916,06/08.0/2006,2000,g  9.0,4.0
# From MPC 56799
73P-AM/Schwassmann-Wachmann,e,11.394,69.876,198.815,3.06205,0.183944,0.6933024,359.951,06/08.0/2006,2000,g  9.0,4.0
# From MPC 56799
73P-AN/Schwassmann-Wachmann,e,11.393,69.870,198.820,3.06185,0.183962,0.6933024,359.940,06/08.0/2006,2000,g  9.0,4.0
# From MPC 56799
73P-AO/Schwassmann-Wachmann,e,11.210,71.286,197.007,3.07823,0.182496,0.6933024,359.853,06/07.0/2006,2000,g  9.0,4.0
# From MPC 56799
73P-AP/Schwassmann-Wachmann,e,11.393,69.895,198.794,3.06223,0.183928,0.6933024,359.874,06/06.0/2006,2000,g  9.0,4.0
# From MPC 56799
73P-AQ/Schwassmann-Wachmann,e,11.387,69.911,198.770,3.06230,0.183921,0.6933024,359.831,06/07.0/2006,2000,g  9.0,4.0
# From MPC 56799
73P-AR/Schwassmann-Wachmann,e,11.385,69.946,198.722,3.06285,0.183872,0.6933024,359.847,06/06.0/2006,2000,g  9.0,4.0
# From MPC 56799
73P-AS/Schwassmann-Wachmann,e,11.392,69.906,198.773,3.06237,0.183915,0.6933024,359.938,06/06.0/2006,2000,g  9.0,4.0
# From MPC 56799
73P-AT/Schwassmann-Wachmann,e,11.391,69.901,198.778,3.06248,0.183905,0.6933024,359.958,06/06.0/2006,2000,g  9.0,4.0
# From MPC 56799
73P-AU/Schwassmann-Wachmann,e,11.385,69.928,198.744,3.06261,0.183894,0.6933024,359.983,06/08.0/2006,2000,g  9.0,4.0
# From MPC 56800
73P-AV/Schwassmann-Wachmann,e,11.388,69.945,198.751,3.06263,0.183892,0.6933024,359.910,06/06.0/2006,2000,g  9.0,4.0
# From MPC 56800
